ORBCOMM FM20 [+]        
1 25416U 98046D   23347.59771162  .00000662  00000+0  28109-3 0  9998
2 25416  44.9952 267.9206 0001827 334.1285  25.9470 14.34685778324985
ORBCOMM FM16 [-]        
1 25417U 98046E   23347.57743097  .00000940  00000+0  37279-3 0  9990
2 25417  44.9949 264.7843 0004562  27.6323 332.4766 14.35465501324907
ORBCOMM FM15 [-]        
1 25418U 98046F   23346.88059397  .00000992  00000+0  39245-3 0  9999
2 25418  44.9984 271.7991 0004122  23.0117 337.0914 14.35218404324984
ORBCOMM FM14 [-]        
1 25419U 98046G   23346.94375311  .00001042  00000+0  40898-3 0  9997
2 25419  44.9975 270.7884 0003291   5.8131 117.0275 14.35338475324779
ORBCOMM FM13 [+]        
1 25420U 98046H   23347.59409149  .00000788  00000+0  32496-3 0  9999
2 25420  44.9986 271.8313 0005403  15.4312 344.6698 14.34749537323946
ORBCOMM FM21 [-]        
1 25475U 98053A   23347.12396221  .00000785  00000+0  32403-3 0  9997
2 25475  45.0105 358.1997 0002355 285.2619  74.7967 14.34748071317897
ORBCOMM FM22 [-]        
1 25476U 98053B   23346.94100603  .00000986  00000+0  39112-3 0  9991
2 25476  45.0103 356.8861 0003921 305.4944  54.5537 14.35153586317854
ORBCOMM FM23 [-]        
1 25477U 98053C   23346.94547136  .00000892  00000+0  36149-3 0  9991
2 25477  45.0108   1.4914 0003289 297.3035  62.7477 14.34741449318012
